KNACKSAT-2              
1 67683U 98067XZ  26070.14430674  .00042386  00000+0  69548-3 0  9991
2 67683  51.6310  64.6207 0009476 191.0290 169.0494 15.51956070  5019
